[
    {
        "Altitude(m)": 570781.2492654126,
        "Argument of Periapsis(deg)": 0.013245982221427002,
        "Eccentricity": 0.0,
        "Inclination(deg)": 53.0,
        "Latitude(deg)": -50.432336270621875,
        "Longitude(deg)": 103.3347434444611,
        "Mean Anomaly(deg)": -74.36221426484485,
        "RAAN(deg)": 269.9802867370561,
        "Satellite Name": "Starlink Shell 1 1204",
        "Satellite Number": 1204,
        "Semi-Major Axis(m)": 6931778.249405717,
        "Time(s)": 380
    },
    {
        "Altitude(m)": 570696.3316246782,
        "Argument of Periapsis(deg)": 0.013594560700938237,
        "Eccentricity": 0.0,
        "Inclination(deg)": 53.0,
        "Latitude(deg)": -50.21839505004528,
        "Longitude(deg)": 104.2105657606704,
        "Mean Anomaly(deg)": -73.73538306128808,
        "RAAN(deg)": 269.97976796697856,
        "Satellite Name": "Starlink Shell 1 1204",
        "Satellite Number": 1204,
        "Semi-Major Axis(m)": 6931778.249405717,
        "Time(s)": 390
    },
    {
        "Altitude(m)": 570608.3899167371,
        "Argument of Periapsis(deg)": 0.013943139180449475,
        "Eccentricity": 0.0,
        "Inclination(deg)": 53.0,
        "Latitude(deg)": -49.99727285739384,
        "Longitude(deg)": 105.07810147496254,
        "Mean Anomaly(deg)": -73.1085518577314,
        "RAAN(deg)": 269.97924919690104,
        "Satellite Name": "Starlink Shell 1 1204",
        "Satellite Number": 1204,
        "Semi-Major Axis(m)": 6931778.249405717,
        "Time(s)": 400
    },
    {
        "Altitude(m)": 570517.4590851625,
        "Argument of Periapsis(deg)": 0.014291717659960712,
        "Eccentricity": 0.0,
        "Inclination(deg)": 53.0,
        "Latitude(deg)": -49.769089517392445,
        "Longitude(deg)": 105.9372245447926,
        "Mean Anomaly(deg)": -72.48172065417468,
        "RAAN(deg)": 269.97873042682363,
        "Satellite Name": "Starlink Shell 1 1204",
        "Satellite Number": 1204,
        "Semi-Major Axis(m)": 6931778.249405717,
        "Time(s)": 410
    },
    {
        "Altitude(m)": 570423.5752499348,
        "Argument of Periapsis(deg)": 0.014640296139471948,
        "Eccentricity": 0.0,
        "Inclination(deg)": 53.0,
        "Latitude(deg)": -49.53396596422293,
        "Longitude(deg)": 106.78782342034997,
        "Mean Anomaly(deg)": -71.85488945061789,
        "RAAN(deg)": 269.97821165674617,
        "Satellite Name": "Starlink Shell 1 1204",
        "Satellite Number": 1204,
        "Semi-Major Axis(m)": 6931778.249405717,
        "Time(s)": 420
    },
    {
        "Altitude(m)": 570326.7756917399,
        "Argument of Periapsis(deg)": 0.014988874618983185,
        "Eccentricity": 0.0,
        "Inclination(deg)": 53.0,
        "Latitude(deg)": -49.29202400470442,
        "Longitude(deg)": 107.62980117046746,
        "Mean Anomaly(deg)": -71.22805824706121,
        "RAAN(deg)": 269.97769288666865,
        "Satellite Name": "Starlink Shell 1 1204",
        "Satellite Number": 1204,
        "Semi-Major Axis(m)": 6931778.249405717,
        "Time(s)": 430
    },
    {
        "Altitude(m)": 570227.0988357052,
        "Argument of Periapsis(deg)": 0.015337453098494424,
        "Eccentricity": 0.0,
        "Inclination(deg)": 53.0,
        "Latitude(deg)": -49.04338609096326,
        "Longitude(deg)": 108.46307557137192,
        "Mean Anomaly(deg)": -70.6012270435046,
        "RAAN(deg)": 269.97717411659124,
        "Satellite Name": "Starlink Shell 1 1204",
        "Satellite Number": 1204,
        "Semi-Major Axis(m)": 6931778.249405717,
        "Time(s)": 440
    },
    {
        "Altitude(m)": 570124.5842347014,
        "Argument of Periapsis(deg)": 0.01568603157800566,
        "Eccentricity": 0.0,
        "Inclination(deg)": 53.0,
        "Latitude(deg)": -48.7881751030883,
        "Longitude(deg)": 109.28757765038903,
        "Mean Anomaly(deg)": -69.97439583994782,
        "RAAN(deg)": 269.9766553465137,
        "Satellite Name": "Starlink Shell 1 1204",
        "Satellite Number": 1204,
        "Semi-Major Axis(m)": 6931778.249405717,
        "Time(s)": 450
    },
    {
        "Altitude(m)": 570019.2725520846,
        "Argument of Periapsis(deg)": 0.0160346100575169,
        "Eccentricity": 0.0,
        "Inclination(deg)": 53.0,
        "Latitude(deg)": -48.52651414216419,
        "Longitude(deg)": 110.10325171520118,
        "Mean Anomaly(deg)": -69.34756463639106,
        "RAAN(deg)": 269.97613657643626,
        "Satellite Name": "Starlink Shell 1 1204",
        "Satellite Number": 1204,
        "Semi-Major Axis(m)": 6931778.249405717,
        "Time(s)": 460
    },
    {
        "Altitude(m)": 569911.205543985,
        "Argument of Periapsis(deg)": 0.016383188537028134,
        "Eccentricity": 0.0,
        "Inclination(deg)": 53.0,
        "Latitude(deg)": -48.25852633397363,
        "Longitude(deg)": 110.91005536047028,
        "Mean Anomaly(deg)": -68.72073343283441,
        "RAAN(deg)": 269.9756178063588,
        "Satellite Name": "Starlink Shell 1 1204",
        "Satellite Number": 1204,
        "Semi-Major Axis(m)": 6931778.249405717,
        "Time(s)": 470
    },
    {
        "Altitude(m)": 569800.4260410707,
        "Argument of Periapsis(deg)": 0.01673176701653937,
        "Eccentricity": 0.0,
        "Inclination(deg)": 53.0,
        "Latitude(deg)": -47.98433464356633,
        "Longitude(deg)": 111.70795794343562,
        "Mean Anomaly(deg)": -68.09390222927773,
        "RAAN(deg)": 269.9750990362813,
        "Satellite Name": "Starlink Shell 1 1204",
        "Satellite Number": 1204,
        "Semi-Major Axis(m)": 6931778.249405717,
        "Time(s)": 480
    },
    {
        "Altitude(m)": 569686.9779298727,
        "Argument of Periapsis(deg)": 0.017080345496050607,
        "Eccentricity": 0.0,
        "Inclination(deg)": 53.0,
        "Latitude(deg)": -47.70406170080709,
        "Longitude(deg)": 112.49694055847016,
        "Mean Anomaly(deg)": -67.46707102572097,
        "RAAN(deg)": 269.9745802662038,
        "Satellite Name": "Starlink Shell 1 1204",
        "Satellite Number": 1204,
        "Semi-Major Axis(m)": 6931778.249405717,
        "Time(s)": 490
    },
    {
        "Altitude(m)": 569570.9061336156,
        "Argument of Periapsis(deg)": 0.017428923975561842,
        "Eccentricity": 0.0,
        "Inclination(deg)": 53.0,
        "Latitude(deg)": -47.41782963693264,
        "Longitude(deg)": 113.27699600171923,
        "Mean Anomaly(deg)": -66.84023982216424,
        "RAAN(deg)": 269.97406149612635,
        "Satellite Name": "Starlink Shell 1 1204",
        "Satellite Number": 1204,
        "Semi-Major Axis(m)": 6931778.249405717,
        "Time(s)": 500
    },
    {
        "Altitude(m)": 569452.2565925886,
        "Argument of Periapsis(deg)": 0.01777750245507308,
        "Eccentricity": 0.0,
        "Inclination(deg)": 53.0,
        "Latitude(deg)": -47.12575993207444,
        "Longitude(deg)": 114.04812721667051,
        "Mean Anomaly(deg)": -66.21340861860757,
        "RAAN(deg)": 269.9735427260489,
        "Satellite Name": "Starlink Shell 1 1204",
        "Satellite Number": 1204,
        "Semi-Major Axis(m)": 6931778.249405717,
        "Time(s)": 510
    },
    {
        "Altitude(m)": 569331.0762440565,
        "Argument of Periapsis(deg)": 0.018126080934584315,
        "Eccentricity": 0.0,
        "Inclination(deg)": 53.0,
        "Latitude(deg)": -46.82797327363991,
        "Longitude(deg)": 114.81034724983584,
        "Mean Anomaly(deg)": -65.58657741505077,
        "RAAN(deg)": 269.97302395597137,
        "Satellite Name": "Starlink Shell 1 1204",
        "Satellite Number": 1204,
        "Semi-Major Axis(m)": 6931778.249405717,
        "Time(s)": 520
    },
    {
        "Altitude(m)": 569207.4130017366,
        "Argument of Periapsis(deg)": 0.018474659414095554,
        "Eccentricity": 0.0,
        "Inclination(deg)": 53.0,
        "Latitude(deg)": -46.52458942538547,
        "Longitude(deg)": 115.56367920682474,
        "Mean Anomaly(deg)": -64.95974621149405,
        "RAAN(deg)": 269.97250518589397,
        "Satellite Name": "Starlink Shell 1 1204",
        "Satellite Number": 1204,
        "Semi-Major Axis(m)": 6931778.249405717,
        "Time(s)": 530
    },
    {
        "Altitude(m)": 569081.3157348215,
        "Argument of Periapsis(deg)": 0.018823237893606792,
        "Eccentricity": 0.0,
        "Inclination(deg)": 53.0,
        "Latitude(deg)": -46.21572710696014,
        "Longitude(deg)": 116.30815469880602,
        "Mean Anomaly(deg)": -64.33291500793739,
        "RAAN(deg)": 269.9719864158165,
        "Satellite Name": "Starlink Shell 1 1204",
        "Satellite Number": 1204,
        "Semi-Major Axis(m)": 6931778.249405717,
        "Time(s)": 540
    },
    {
        "Altitude(m)": 568952.8342465804,
        "Argument of Periapsis(deg)": 0.019171816373118027,
        "Eccentricity": 0.0,
        "Inclination(deg)": 53.0,
        "Latitude(deg)": -45.90150388365898,
        "Longitude(deg)": 117.04381380767344,
        "Mean Anomaly(deg)": -63.70608380438072,
        "RAAN(deg)": 269.971467645739,
        "Satellite Name": "Starlink Shell 1 1204",
        "Satellite Number": 1204,
        "Semi-Major Axis(m)": 6931778.249405717,
        "Time(s)": 550
    },
    {
        "Altitude(m)": 568822.0192525253,
        "Argument of Periapsis(deg)": 0.019520394852629266,
        "Eccentricity": 0.0,
        "Inclination(deg)": 53.0,
        "Latitude(deg)": -45.58203606608326,
        "Longitude(deg)": 117.77070505934027,
        "Mean Anomaly(deg)": -63.07925260082389,
        "RAAN(deg)": 269.9709488756615,
        "Satellite Name": "Starlink Shell 1 1204",
        "Satellite Number": 1204,
        "Semi-Major Axis(m)": 6931778.249405717,
        "Time(s)": 560
    }
]